[{"OBJECT_NAME":"STARLINK-1480","OBJECT_ID":"2020-038M","EPOCH":"2026-03-09T17:32:00.403008","MEAN_MOTION":15.47630667,"ECCENTRICITY":0.00068768,"INCLINATION":53.0516,"RA_OF_ASC_NODE":217.0565,"ARG_OF_PERICENTER":179.8885,"MEAN_ANOMALY":180.2125,"EPHEMERIS_TYPE":0,"CLASSIFICATION_TYPE":"U","NORAD_CAT_ID":45741,"ELEMENT_SET_NO":999,"REV_AT_EPOCH":31648,"BSTAR":0.00053203068,"MEAN_MOTION_DOT":0.00027583,"MEAN_MOTION_DDOT":0},{"OBJECT_NAME":"COSMOS 1703","OBJECT_ID":"1985-108A","EPOCH":"2026-03-09T17:57:42.122880","MEAN_MOTION":15.50625975,"ECCENTRICITY":0.00059475,"INCLINATION":82.4603,"RA_OF_ASC_NODE":321.559,"ARG_OF_PERICENTER":16.4744,"MEAN_ANOMALY":343.6699,"EPHEMERIS_TYPE":0,"CLASSIFICATION_TYPE":"U","NORAD_CAT_ID":16262,"ELEMENT_SET_NO":999,"REV_AT_EPOCH":20203,"BSTAR":0.00045588511,"MEAN_MOTION_DOT":0.00026209,"MEAN_MOTION_DDOT":0}]
